[{"OBJECT_NAME":"UNKNOWN","OBJECT_ID":"","EPOCH":"2026-04-03T12:59:47.852448","MEAN_MOTION":14.4253561,"ECCENTRICITY":0.0014302,"INCLINATION":82.9175,"RA_OF_ASC_NODE":131.5109,"ARG_OF_PERICENTER":248.4298,"MEAN_ANOMALY":111.5372,"EPHEMERIS_TYPE":0,"CLASSIFICATION_TYPE":"U","NORAD_CAT_ID":81775,"ELEMENT_SET_NO":999,"REV_AT_EPOCH":64138,"BSTAR":0.0028325,"MEAN_MOTION_DOT":9.426e-5,"MEAN_MOTION_DDOT":0},{"OBJECT_NAME":"UNKNOWN","OBJECT_ID":"","EPOCH":"2026-04-03T05:34:41.877696","MEAN_MOTION":9.33761831,"ECCENTRICITY":0.143952,"INCLINATION":54.4618,"RA_OF_ASC_NODE":43.437,"ARG_OF_PERICENTER":149.0612,"MEAN_ANOMALY":220.3591,"EPHEMERIS_TYPE":0,"CLASSIFICATION_TYPE":"U","NORAD_CAT_ID":81779,"ELEMENT_SET_NO":999,"REV_AT_EPOCH":49073,"BSTAR":0.16394,"MEAN_MOTION_DOT":2.37e-5,"MEAN_MOTION_DDOT":0},{"OBJECT_NAME":"UNKNOWN","OBJECT_ID":"","EPOCH":"2026-04-04T23:57:16.136352","MEAN_MOTION":13.11456183,"ECCENTRICITY":0.0894902,"INCLINATION":65.8317,"RA_OF_ASC_NODE":201.2657,"ARG_OF_PERICENTER":232.4582,"MEAN_ANOMALY":119.1857,"EPHEMERIS_TYPE":0,"CLASSIFICATION_TYPE":"U","NORAD_CAT_ID":81792,"ELEMENT_SET_NO":999,"REV_AT_EPOCH":9488,"BSTAR":0.00099726,"MEAN_MOTION_DOT":2.817e-5,"MEAN_MOTION_DDOT":0},{"OBJECT_NAME":"UNKNOWN","OBJECT_ID":"","EPOCH":"2026-04-05T06:39:27.283104","MEAN_MOTION":12.38640937,"ECCENTRICITY":0.0328843,"INCLINATION":103.7971,"RA_OF_ASC_NODE":26.5535,"ARG_OF_PERICENTER":40.766,"MEAN_ANOMALY":321.7513,"EPHEMERIS_TYPE":0,"CLASSIFICATION_TYPE":"U","NORAD_CAT_ID":81812,"ELEMENT_SET_NO":999,"REV_AT_EPOCH":55461,"BSTAR":0.045714,"MEAN_MOTION_DOT":7.182e-5,"MEAN_MOTION_DDOT":0},{"OBJECT_NAME":"UNKNOWN","OBJECT_ID":"","EPOCH":"2026-04-05T03:54:12.254112","MEAN_MOTION":13.89819653,"ECCENTRICITY":0.0168642,"INCLINATION":66.239,"RA_OF_ASC_NODE":13.2655,"ARG_OF_PERICENTER":182.6023,"MEAN_ANOMALY":177.4192,"EPHEMERIS_TYPE":0,"CLASSIFICATION_TYPE":"U","NORAD_CAT_ID":81816,"ELEMENT_SET_NO":999,"REV_AT_EPOCH":62510,"BSTAR":0.0014118,"MEAN_MOTION_DOT":1.867e-5,"MEAN_MOTION_DDOT":0},{"OBJECT_NAME":"UNKNOWN","OBJECT_ID":"","EPOCH":"2026-04-04T05:25:41.427552","MEAN_MOTION":12.47896904,"ECCENTRICITY":0.0035449,"INCLINATION":102.1686,"RA_OF_ASC_NODE":197.969,"ARG_OF_PERICENTER":256.9002,"MEAN_ANOMALY":102.8108,"EPHEMERIS_TYPE":0,"CLASSIFICATION_TYPE":"U","NORAD_CAT_ID":81819,"ELEMENT_SET_NO":999,"REV_AT_EPOCH":56204,"BSTAR":0.0069734,"MEAN_MOTION_DOT":9.87e-6,"MEAN_MOTION_DDOT":0},{"OBJECT_NAME":"UNKNOWN","OBJECT_ID":"","EPOCH":"2026-04-05T04:59:52.652256","MEAN_MOTION":14.36771529,"ECCENTRICITY":0.0048883,"INCLINATION":65.8441,"RA_OF_ASC_NODE":27.1497,"ARG_OF_PERICENTER":280.6256,"MEAN_ANOMALY":78.9335,"EPHEMERIS_TYPE":0,"CLASSIFICATION_TYPE":"U","NORAD_CAT_ID":81824,"ELEMENT_SET_NO":999,"REV_AT_EPOCH":64088,"BSTAR":0.0019342,"MEAN_MOTION_DOT":5.708e-5,"MEAN_MOTION_DDOT":0},{"OBJECT_NAME":"UNKNOWN","OBJECT_ID":"","EPOCH":"2026-04-05T11:53:59.953056","MEAN_MOTION":12.93784267,"ECCENTRICITY":0.0028555,"INCLINATION":90.2482,"RA_OF_ASC_NODE":5.4256,"ARG_OF_PERICENTER":83.6618,"MEAN_ANOMALY":276.7751,"EPHEMERIS_TYPE":0,"CLASSIFICATION_TYPE":"U","NORAD_CAT_ID":81833,"ELEMENT_SET_NO":999,"REV_AT_EPOCH":46722,"BSTAR":0.0018519,"MEAN_MOTION_DOT":5.19e-6,"MEAN_MOTION_DDOT":0},{"OBJECT_NAME":"UNKNOWN","OBJECT_ID":"","EPOCH":"2026-04-03T02:41:52.876320","MEAN_MOTION":14.58622573,"ECCENTRICITY":0.0043546,"INCLINATION":67.7608,"RA_OF_ASC_NODE":334.765,"ARG_OF_PERICENTER":264.8935,"MEAN_ANOMALY":246.6464,"EPHEMERIS_TYPE":0,"CLASSIFICATION_TYPE":"U","NORAD_CAT_ID":81838,"ELEMENT_SET_NO":999,"REV_AT_EPOCH":64956,"BSTAR":0.0018607,"MEAN_MOTION_DOT":8.715e-5,"MEAN_MOTION_DDOT":0},{"OBJECT_NAME":"UNKNOWN","OBJECT_ID":"","EPOCH":"2026-04-04T23:32:03.609312","MEAN_MOTION":14.34406221,"ECCENTRICITY":0.0062145,"INCLINATION":82.9133,"RA_OF_ASC_NODE":189.6635,"ARG_OF_PERICENTER":164.4391,"MEAN_ANOMALY":195.8728,"EPHEMERIS_TYPE":0,"CLASSIFICATION_TYPE":"U","NORAD_CAT_ID":81844,"ELEMENT_SET_NO":999,"REV_AT_EPOCH":63911,"BSTAR":0.0032313,"MEAN_MOTION_DOT":9.314e-5,"MEAN_MOTION_DDOT":0},{"OBJECT_NAME":"UNKNOWN","OBJECT_ID":"","EPOCH":"2026-04-05T06:20:39.670656","MEAN_MOTION":14.85861372,"ECCENTRICITY":0.0085293,"INCLINATION":97.6785,"RA_OF_ASC_NODE":283.2607,"ARG_OF_PERICENTER":291.6461,"MEAN_ANOMALY":245.9413,"EPHEMERIS_TYPE":0,"CLASSIFICATION_TYPE":"U","NORAD_CAT_ID":81845,"ELEMENT_SET_NO":999,"REV_AT_EPOCH":66637,"BSTAR":0.00035166,"MEAN_MOTION_DOT":3.212e-5,"MEAN_MOTION_DDOT":0},{"OBJECT_NAME":"UNKNOWN","OBJECT_ID":"","EPOCH":"2026-04-02T11:39:58.021344","MEAN_MOTION":13.32817256,"ECCENTRICITY":0.0770112,"INCLINATION":65.6702,"RA_OF_ASC_NODE":167.8953,"ARG_OF_PERICENTER":325.4344,"MEAN_ANOMALY":29.8826,"EPHEMERIS_TYPE":0,"CLASSIFICATION_TYPE":"U","NORAD_CAT_ID":81864,"ELEMENT_SET_NO":999,"REV_AT_EPOCH":56559,"BSTAR":0.0005362,"MEAN_MOTION_DOT":1.38e-5,"MEAN_MOTION_DDOT":0},{"OBJECT_NAME":"UNKNOWN","OBJECT_ID":"","EPOCH":"2026-04-05T00:40:53.092128","MEAN_MOTION":13.88336729,"ECCENTRICITY":0.0062815,"INCLINATION":82.8024,"RA_OF_ASC_NODE":301.2028,"ARG_OF_PERICENTER":42.329,"MEAN_ANOMALY":109.5736,"EPHEMERIS_TYPE":0,"CLASSIFICATION_TYPE":"U","NORAD_CAT_ID":81865,"ELEMENT_SET_NO":999,"REV_AT_EPOCH":62426,"BSTAR":0.0010841,"MEAN_MOTION_DOT":1.334e-5,"MEAN_MOTION_DDOT":0},{"OBJECT_NAME":"UNKNOWN","OBJECT_ID":"","EPOCH":"2026-04-03T22:05:13.547616","MEAN_MOTION":13.76971177,"ECCENTRICITY":0.0020689,"INCLINATION":100.0579,"RA_OF_ASC_NODE":88.495,"ARG_OF_PERICENTER":345.5855,"MEAN_ANOMALY":14.4701,"EPHEMERIS_TYPE":0,"CLASSIFICATION_TYPE":"U","NORAD_CAT_ID":81893,"ELEMENT_SET_NO":999,"REV_AT_EPOCH":61951,"BSTAR":0.0014617,"MEAN_MOTION_DOT":1.395e-5,"MEAN_MOTION_DDOT":0},{"OBJECT_NAME":"UNKNOWN","OBJECT_ID":"","EPOCH":"2026-04-05T14:31:14.194560","MEAN_MOTION":13.20590489,"ECCENTRICITY":0.0169722,"INCLINATION":102.4128,"RA_OF_ASC_NODE":222.9389,"ARG_OF_PERICENTER":331.9289,"MEAN_ANOMALY":27.2747,"EPHEMERIS_TYPE":0,"CLASSIFICATION_TYPE":"U","NORAD_CAT_ID":81899,"ELEMENT_SET_NO":999,"REV_AT_EPOCH":59401,"BSTAR":0.0059265,"MEAN_MOTION_DOT":2.535e-5,"MEAN_MOTION_DDOT":0},{"OBJECT_NAME":"UNKNOWN","OBJECT_ID":"","EPOCH":"2026-03-21T00:40:32.795040","MEAN_MOTION":13.15483007,"ECCENTRICITY":0.0843178,"INCLINATION":65.7092,"RA_OF_ASC_NODE":189.977,"ARG_OF_PERICENTER":71.9683,"MEAN_ANOMALY":297.132,"EPHEMERIS_TYPE":0,"CLASSIFICATION_TYPE":"U","NORAD_CAT_ID":81921,"ELEMENT_SET_NO":999,"REV_AT_EPOCH":3871,"BSTAR":0.00017021,"MEAN_MOTION_DOT":3.37e-6,"MEAN_MOTION_DDOT":0},{"OBJECT_NAME":"UNKNOWN","OBJECT_ID":"","EPOCH":"2026-04-05T13:07:42.072672","MEAN_MOTION":12.42655159,"ECCENTRICITY":0.0679311,"INCLINATION":66.4189,"RA_OF_ASC_NODE":293.7002,"ARG_OF_PERICENTER":296.6297,"MEAN_ANOMALY":86.4529,"EPHEMERIS_TYPE":0,"CLASSIFICATION_TYPE":"U","NORAD_CAT_ID":81946,"ELEMENT_SET_NO":999,"REV_AT_EPOCH":56202,"BSTAR":0.00072954,"MEAN_MOTION_DOT":1.73e-6,"MEAN_MOTION_DDOT":0}]
